{"type":"Topology","arcs":[[[10580,7306],[-151,-55],[-76,-41],[-287,-105],[-132,-41],[-165,-24],[-119,-36],[-36,-17],[-160,-38],[-155,-19],[-77,2],[-170,-10],[-201,21],[-122,31],[-71,-30],[-47,5],[-90,-37],[-219,-131],[-131,-33],[-159,-68],[-63,-15],[-65,-59],[-127,-43],[-232,-30],[-102,-52],[-56,-51],[-31,-81],[-40,-61],[-37,-130],[-40,-13],[-89,-77],[-11,-49],[-114,-55],[-26,-33],[-44,23],[-76,-2],[-51,-51],[-79,-9],[-9,38],[-32,37],[-40,11],[-96,-22],[-59,10],[-92,-5],[-48,-13],[-10,-30],[-112,27],[-51,-6],[-82,-59],[-61,1],[7,34],[-25,54],[-34,31],[-52,-2],[-81,-41],[-83,24],[-39,-12],[-63,34],[-131,3],[-110,-32],[-45,15],[-84,-17],[-67,9],[-51,-18],[-144,-4],[-29,-27],[-69,-21],[-95,20],[-66,4],[-37,-12],[-79,15],[-48,-22],[-81,-14],[-50,-39],[-59,-22],[-45,-35],[-64,-88],[6,-44],[-65,-16],[-2,-34],[-74,-16],[-6,-34],[-94,30],[-122,16],[-37,-37],[-57,-7],[-41,-24],[-14,-55],[-61,-23],[-88,-19],[-60,-67],[-2,-50],[-79,-2],[-64,-19],[-31,-27],[-68,-17],[-110,-7],[-26,-28],[-83,15],[-38,-20],[-58,-8],[-52,10],[-66,32],[-123,7],[-21,-31],[-66,26],[-67,2],[-25,-20],[-72,18],[-87,-4],[-127,16],[-88,54],[-55,22],[-150,29],[-57,65],[-124,112],[-87,57],[-183,81],[-99,8],[-50,-26],[-59,50],[-4,51],[-27,59],[-5,146],[16,38],[-21,60],[28,32],[-6,54],[37,3],[48,-48],[50,-18],[58,-3],[100,33],[54,51],[39,53],[40,77],[20,8],[5,160],[-33,131],[-16,91],[26,3],[34,-69],[21,4],[-33,74],[50,3],[13,22],[-36,39],[20,50],[-6,75],[-14,19],[28,71],[-19,80],[10,78],[-14,95],[-27,76],[-50,62],[-36,68],[-63,81],[-93,191],[-49,68],[-38,32],[-13,52],[-40,66],[-26,68],[-4,46],[-29,82],[6,36],[-30,25],[9,41],[-30,71],[16,78],[-13,44],[-1,105],[22,109],[-26,57],[-28,94],[-43,87],[-118,109],[-49,78],[8,79],[-39,82],[-71,74],[-74,104],[-43,23],[-52,53],[-39,124],[-6,52],[31,80],[-46,147],[-41,81],[-163,243],[-72,87],[-42,61],[-193,170],[-9,48],[-26,48],[50,72],[28,-65],[33,45],[24,-28],[30,-77],[37,-35],[31,-82],[63,-59],[104,43],[22,32],[-9,57],[8,34],[-68,62],[-64,12],[-3,23],[-45,54],[-22,4],[-13,91],[-26,13],[-4,40],[-60,77],[1,45],[61,89],[12,-67],[33,-8],[16,-44],[100,-123],[-16,-19],[-21,-130],[16,-30],[44,-6],[35,52],[66,-10],[-9,-32],[23,-86],[65,-64],[23,-7],[68,44],[18,36],[-28,74],[24,80],[-24,37],[44,10],[-16,37],[16,52],[-68,32],[-17,46],[-53,42],[-22,47],[-57,73],[-83,170],[-59,29],[-23,26],[-22,59],[9,45],[-31,12],[7,59],[-11,41],[-41,52],[-68,68],[-31,73],[-5,100],[32,48],[-12,74],[30,50],[-1,35],[28,36],[16,53],[22,14],[26,66],[91,66],[21,42],[9,80],[-23,101],[42,67],[-3,74],[-31,87],[-30,29],[-36,8],[8,36],[-17,56],[56,60],[18,59],[30,32],[54,134],[8,38],[75,116],[49,29],[48,12],[-54,-234],[31,-61],[31,-26],[-32,-44],[-8,-54],[45,-27],[28,33],[43,15],[21,-27],[31,6],[17,73],[34,74],[35,45],[17,58],[18,17],[54,88],[9,33],[87,38],[99,53],[53,1],[63,17],[78,40],[152,52],[97,105],[40,27],[94,39],[47,73],[39,34],[142,55],[44,78],[31,-12],[54,20],[57,4],[100,53],[103,73],[29,-29],[61,-30],[120,56],[66,-17],[23,-21],[103,-27],[105,13],[58,30],[48,-9],[108,34],[47,34],[20,42],[128,80],[63,-6],[60,22],[30,-16],[157,32],[63,-5],[85,34],[32,47],[52,49],[10,33],[62,41],[94,14],[108,-22],[126,-44],[89,34],[21,31],[45,-2],[176,27],[110,9],[86,24],[186,64],[200,79],[157,98],[78,73],[68,81],[68,93],[33,76],[48,82],[1,57],[53,11],[30,26],[3,68],[33,57],[57,-7],[73,48],[27,40],[39,16],[65,59],[68,29],[29,53],[-5,38],[-108,34],[7,44],[-9,41],[8,58],[-41,90],[4,136],[15,49],[71,75],[-3,30],[90,72],[45,14],[67,-4],[-34,50],[26,52],[88,1],[46,16],[-19,36],[9,60],[52,26],[32,30],[19,59],[60,25],[-11,-94],[-20,-32],[47,-58],[46,-34],[-4,-23],[37,-24],[-5,-64],[26,-10],[51,-52],[13,-53],[35,-37],[43,-102],[23,-10],[79,-106],[9,96],[18,29],[12,60],[20,19],[-42,55],[8,58],[29,5],[76,-56],[9,-21],[47,-9],[-28,81],[71,86],[-72,-19],[-16,7],[-49,91],[-65,40],[-19,30],[28,32],[-35,14],[-28,-16],[-56,41],[63,1],[62,-20],[24,28],[-76,36],[10,18],[62,-19],[2,41],[-73,58],[36,67],[63,4],[53,-9],[25,-21],[-50,-37],[46,-30],[21,-37],[39,-25],[8,43],[52,32],[-41,32],[134,-23],[29,-19],[34,-57],[79,-7],[38,33],[48,-24],[78,-5],[88,11],[-19,24],[-66,11],[-121,-7],[-19,33],[-4,42],[34,45],[1,43],[59,-65],[46,51],[-4,64],[17,55],[49,11],[16,37],[-20,18],[-45,-9],[-34,-42],[-29,-58],[-26,26],[-16,51],[-31,-19],[-17,114],[26,11],[-9,68],[66,56],[49,-24],[34,1],[45,80],[0,46],[65,4],[81,-42],[48,-38],[37,-46],[26,92],[-34,41],[-71,-35],[-39,54],[-19,66],[44,25],[34,-12],[45,22],[-13,61],[77,-40],[59,-5],[63,-56],[41,26],[-12,69],[-49,1],[-50,37],[19,44],[-28,17],[-1,32],[-30,32],[91,60],[-11,33],[59,-7],[73,38],[23,24],[55,-25],[22,77],[-19,30],[-2,59],[21,19],[50,-34],[3,-37],[-27,-12],[18,-90],[39,38],[51,-10],[5,-68],[49,2],[14,31],[77,6],[-37,77],[49,20],[8,75],[45,19],[-4,62],[-84,10],[-21,29],[65,3],[12,62],[38,-5],[19,-38],[-6,-33],[29,-31],[-15,-37],[37,-39],[65,30],[-34,24],[14,30],[49,50],[73,5],[10,-44],[-15,-27],[43,-14],[7,-36],[89,47],[15,36],[-17,32],[77,39],[-47,92],[65,14],[12,16],[58,12],[77,-64],[25,-76],[37,25],[33,-15],[71,11],[64,-15],[19,-27],[-1,-38],[28,-6],[117,-73],[59,-65],[22,-50],[59,-45],[17,-35],[98,-63],[80,-60],[12,-76],[-30,-7],[-54,-178],[12,-30],[-6,-63],[-22,-9],[19,-46],[27,-9],[4,55],[-12,38],[17,29],[65,-47],[-4,86],[-15,38],[58,60],[20,33],[68,-83],[28,24],[-24,37],[-14,72],[86,43],[38,-16],[81,-12],[79,-26],[56,0],[53,-17]],[[10580,17589],[0,-214],[0,-425],[0,-426],[0,-425],[0,-425],[0,-425],[0,-425],[0,-426],[0,-425],[0,-425],[0,-425],[0,-213],[0,-425],[0,-425],[0,-213],[0,-425],[0,-213],[0,-425]],[[10580,10784],[0,-435],[0,-218],[0,-435],[0,-435],[0,-435],[0,-435],[0,-217],[0,-435],[0,-433]],[[196,10742],[-41,9],[-72,69],[-22,59],[-31,31],[-7,59],[-23,40],[0,66],[58,17],[-1,-35],[25,-47],[5,-53],[56,-103],[-14,-48],[32,-8],[35,-56]],[[1675,14006],[-18,-55],[-48,-35],[-36,46],[59,66],[43,-22]],[[7669,17305],[-3,-25],[-56,-2],[-9,31],[51,18],[17,-22]],[[8077,17833],[-12,-44],[10,-33],[-68,-7],[22,77],[48,7]],[[10580,17589],[74,-29],[40,-30],[2,-57],[24,-78],[33,48],[-27,161],[68,-11],[32,-26],[68,-18],[24,-45],[39,-28],[17,-39],[40,17],[-31,90],[22,62],[82,-12],[17,52],[-47,-9],[-34,41],[-44,31],[-14,65],[-33,13],[-116,83],[10,49],[37,67],[42,46],[1,33],[72,15],[18,18],[56,12],[19,34],[-20,49],[17,33],[49,39],[-20,53],[28,57],[6,44],[46,39],[5,-39],[36,-12],[49,16],[79,44],[48,59],[24,10],[-74,90],[-28,10],[8,132],[33,24],[44,-23],[47,20],[22,39],[5,56],[-10,34],[39,26],[74,30],[38,-22],[3,43],[27,81],[-9,31],[117,-30],[0,-42],[39,-34],[25,30],[1,36],[-38,2],[0,29],[48,40],[84,-16],[3,66],[-20,50],[29,15],[48,-5],[66,-37],[26,27],[11,64],[30,-18],[6,-55],[52,-52],[56,-16],[79,0],[113,16],[79,31],[20,-27],[73,-26],[46,19],[37,33],[64,25],[6,-29],[45,16],[50,-18],[11,47],[91,37],[67,-26],[-34,57],[15,109],[-6,29],[-32,20],[68,80],[-66,20],[-29,23],[-37,66],[-83,25],[-38,-16],[-45,4],[-31,-21],[-73,-18],[-36,41],[-54,44],[-15,36],[-46,11],[-5,58],[23,22],[38,-49],[28,16],[-10,36],[31,17],[41,-33],[24,-57],[49,-40],[2,82],[-29,37],[27,15],[35,-39],[37,26],[34,5],[22,-42],[61,-12],[62,-87],[29,-18],[40,-63],[56,10],[19,30],[44,26],[36,42],[66,-62],[86,-147],[29,-26],[50,-8],[20,25],[36,0],[87,-62],[29,17],[23,-30],[42,-13],[40,38],[45,0],[34,34],[65,-15],[5,-21],[-43,-50],[66,-36],[42,20],[82,-3],[38,-81],[45,1],[18,30],[63,-45],[93,-14],[54,9],[66,55],[42,8],[25,-59],[19,4],[17,-55],[69,-12],[25,-38],[43,-31],[124,23],[29,57],[57,23],[47,-14],[49,20],[35,-11],[-12,64],[20,23],[36,-6],[55,15],[90,59],[-5,48],[45,-6],[-22,-45],[-77,-85],[-13,-50],[-76,-57],[12,-44],[30,-25],[33,12],[76,65],[58,5],[-22,-43],[60,-60],[-27,-31],[25,-57],[78,13],[21,-17],[52,13],[34,35],[39,78],[-33,33],[-52,-5],[-36,14],[80,84],[23,0],[75,66],[18,-37],[37,6],[37,-111],[66,-66],[50,24],[-43,32],[40,16],[42,-30],[34,-6],[33,-40],[15,-41],[-58,-48],[-80,-25],[3,-44],[-43,-76],[-51,-38],[13,-52],[-23,-2],[-14,45],[-60,-27],[10,-35],[97,-64],[13,-25],[-105,12],[24,-45],[22,-5],[-77,-97],[-33,-16],[-22,29],[3,79],[-44,-15],[3,-44],[-86,-45],[-49,47],[-34,-53],[-29,19],[-26,-37],[-29,5],[-27,-36],[25,-31],[-14,-37],[-30,-11],[9,-59],[-15,-30],[60,-91],[77,38],[-32,-68],[-9,-63],[-45,-35],[-13,-108],[4,-36],[-36,-4],[-63,-39],[-55,-86],[-33,-16],[-61,-91],[-6,-43],[-87,-54],[9,-46],[43,-82],[54,-43],[66,-14],[37,-34],[100,-48],[60,-54],[60,-23],[32,-23],[98,-52],[18,-74],[53,-42],[45,-4],[74,-60],[43,5],[12,-27],[102,-89],[61,-4],[30,-18],[57,44],[35,-35],[135,-60],[72,-62],[90,-34],[35,3],[129,-49],[79,-113],[88,-64]],[[16502,16566],[0,-549],[0,-361],[0,-361],[0,-541],[0,-361],[0,-361],[0,-361],[0,-541],[0,-361],[0,-361],[0,-361],[0,-361],[0,-541],[0,-361]],[[16502,10784],[-555,0],[-370,0],[-370,0],[-371,0],[-370,0],[-370,0],[-555,0],[-370,0],[-370,0],[-370,0],[-370,0],[-370,0],[-555,0],[-556,0]],[[15627,17103],[27,-24],[-31,-46],[-28,52],[32,18]],[[15895,17049],[19,-14],[-22,-44],[-48,36],[-12,46],[-26,27],[38,33],[55,-23],[-4,-61]],[[15591,17179],[-18,-59],[-45,-4],[-14,33],[17,33],[60,-3]],[[15375,18300],[-25,-22],[8,-32],[-33,-20],[-38,34],[38,67],[50,-27]],[[15812,18009],[5,-31],[-37,-41],[-34,14],[-78,12],[-61,-14],[-118,39],[-32,31],[17,27],[-19,76],[14,73],[-15,27],[69,-1],[54,14],[9,25],[-18,54],[68,-23],[23,-67],[51,-14],[27,16],[3,47],[40,-5],[14,-29],[-45,-67],[-42,-2],[-21,-36],[30,-29],[-58,-24],[-9,-39],[13,-35],[57,16],[41,-30],[29,37],[23,-21]],[[15377,19358],[8,-23],[-78,-40],[4,44],[46,-6],[20,25]],[[12962,19559],[5,-38],[-45,-7],[-31,30],[22,24],[49,-9]],[[15464,19642],[-31,-50],[-94,-21],[33,38],[24,-24],[68,57]],[[11591,19523],[65,-39],[-41,-38],[-50,-5],[-116,42],[-114,-33],[-62,1],[7,80],[68,0],[23,23],[-12,65],[-24,36],[81,92],[52,-1],[33,-57],[-2,-62],[43,-35],[-9,-63],[58,-6]],[[12250,19701],[-5,-37],[-31,0],[-33,-81],[-36,14],[-56,-86],[-128,-63],[-78,-60],[-79,40],[-97,37],[-86,62],[-56,30],[-10,64],[-34,37],[-24,92],[8,23],[-26,39],[22,48],[70,-75],[45,1],[77,-90],[21,23],[80,15],[28,29],[44,-2],[37,-24],[94,65],[34,1],[46,35],[37,-32],[64,-5],[30,-86],[42,-14]],[[15688,19929],[-28,-82],[-27,-29],[-59,-95],[-43,-42],[-18,29],[42,27],[16,43],[45,60],[23,5],[15,50],[34,34]],[[12876,19856],[15,45],[26,33],[41,-47],[-21,-27],[30,-56],[-18,-43],[-23,3],[-20,56],[-30,36]],[[16502,10784],[493,0],[494,0],[493,0],[494,0],[0,-229],[0,-459],[0,-229],[0,-459],[0,-458]],[[18476,8950],[0,-192],[0,-384],[0,-384],[0,-384],[0,-384],[0,-384],[0,-192],[0,-385],[0,-379]],[[18476,5882],[-22,19],[0,-354],[0,-306],[0,-305],[0,-305],[0,-306],[1,-305],[0,-306],[0,-303]],[[18455,3411],[-168,-6],[-73,20],[-160,95],[-14,40],[-64,92],[-68,43],[-15,48],[-83,18],[-127,134],[-35,54],[30,33],[-34,66],[-42,40],[74,31],[38,34],[14,48],[-7,89],[-82,153],[-106,181],[-73,72],[-169,129],[-111,62],[-20,37],[294,-209],[78,-75],[18,17],[-77,77],[-190,126],[-96,52],[62,65],[65,-30],[6,-90],[62,4],[12,58],[-90,53],[103,26],[-49,66],[-51,23],[-80,-43],[-49,3],[-44,-18],[5,-38],[-47,-20],[-10,-32],[-89,13],[-71,-17],[-71,-48],[-62,-7],[-103,3],[-68,-10],[-46,29],[11,40],[108,52],[45,53],[47,19],[29,85],[-3,63],[27,33],[-14,112],[5,50],[28,31],[-64,40],[-4,24],[-51,37],[-63,84],[-22,72],[-47,37],[2,30],[-53,51],[-40,-61],[14,-49],[-71,-65],[-31,-107],[18,-21],[-25,-84],[-35,-55],[-48,-127],[0,-46],[-49,-29],[-73,31],[-104,4],[-47,-29],[-61,0],[-46,-43],[-85,9],[-57,-35],[-52,-6],[-25,28],[13,27],[51,36],[18,30],[-12,35],[19,45],[39,40],[72,-16],[83,13],[82,-30],[36,22],[8,71],[36,112],[-35,105],[22,114],[-26,59],[35,8],[31,48],[-14,35],[55,45],[-9,40],[75,54],[40,57],[57,42],[44,6],[5,54],[-50,80],[5,23],[-39,60],[29,43],[64,29],[61,11],[-6,36],[-51,38],[-36,132],[23,22],[-58,33],[-4,35],[-55,29],[-4,-61],[31,-28],[5,-73],[-56,-80],[-33,21],[-52,-23],[-3,-26],[-51,-45],[-40,-19],[-11,-50],[-31,-44],[-7,-59],[-47,-67],[-53,-94],[-46,-32],[-89,-15],[-36,28],[-54,-37],[-3,-35],[-47,-4],[-63,-35],[-68,-23],[-17,-28],[-140,-76],[-14,-36],[-76,-108],[-78,-45],[7,-43],[-124,-50],[-41,-66],[-8,-34],[28,-64],[74,36],[-3,-45],[-28,-36],[28,-63],[-98,31],[-27,34],[-53,8],[-72,-56],[-19,44],[-114,102],[-46,17],[-13,29],[-72,45],[-80,-8],[53,68],[142,-109],[61,13],[-72,33],[4,59],[-22,40],[-10,81],[-48,97],[-9,72],[-46,65],[-34,14],[-88,75],[-102,66],[12,57],[-9,53],[-26,65],[-100,78],[-143,43],[-74,-31],[-36,26],[-58,132],[-71,7],[-15,15],[48,46],[-38,74],[130,-11],[17,33],[-16,55],[-29,40],[-53,40],[-77,-5],[-25,-25],[-38,4],[-54,-18],[3,43],[60,43],[-36,46],[-55,41],[-79,35],[-6,41],[-63,12],[-23,-43],[-40,21],[-47,3],[-5,-47],[-70,12],[-17,-15],[-57,19],[-30,-7],[-60,54],[-80,28],[-90,64],[-139,14],[-73,-13],[5,-43],[-71,7],[-93,-11],[-48,25],[-55,51],[-102,51],[-92,59],[-162,75],[-126,46],[-110,32],[-56,-9],[-65,-38],[-105,-29],[-90,-2],[-98,12],[-156,0],[-102,7],[-51,-12],[-89,3],[-125,-16],[-143,-4],[-56,-13],[-165,-8],[-41,-13],[-91,-7]],[[16587,4783],[-2,-29],[-52,-34],[-76,27],[-115,2],[-95,-32],[5,-47],[-106,-50],[-58,44],[-105,19],[-47,-38],[-79,12],[-66,-17],[-45,12],[-89,-20],[-39,54],[-82,38],[5,26],[54,72],[46,4],[75,23],[177,22],[135,34],[48,19],[55,-16],[123,18],[-28,-39],[44,-8],[-44,-42],[69,-18],[61,11],[23,-44],[47,19],[16,31],[102,-19],[43,-34]],[[16502,16566],[40,-43],[81,-52],[84,-32],[40,2],[79,-29],[34,9],[74,0],[64,-38],[76,-23],[67,-4],[43,-18],[17,-38],[63,-34],[-11,-52],[15,-53],[30,-50],[42,-38],[108,-17],[91,-58],[42,-38],[108,-22],[80,-32],[48,-52],[78,-6],[81,9],[176,40],[59,28],[104,69],[51,16],[33,64],[14,75],[18,20],[18,72],[-8,34],[68,80],[22,53],[22,4],[54,55],[23,80],[18,8],[28,72],[30,133],[49,87],[-30,88],[15,21],[25,156],[31,104],[55,117],[7,42],[38,47],[18,80],[-41,81],[-38,158],[-16,83],[8,51],[38,95],[8,51],[-13,52],[-65,78],[-12,51],[5,55],[34,125],[22,49],[62,84],[24,57],[-2,25],[-34,36],[-13,68],[-20,44],[28,41],[58,28],[25,28],[36,92],[91,57],[-90,-5],[-49,41],[-1,25],[-45,21],[0,-63],[-47,11],[65,131],[10,39],[29,24],[32,94],[46,54],[30,-61],[39,15],[-19,89],[13,52],[28,33],[1,32],[79,224],[1,62],[17,53],[-9,102],[19,33],[98,17],[52,50],[31,65],[66,3],[43,-22],[-43,-57],[43,-18],[13,-39],[71,-27],[31,-67],[8,-118],[26,-18],[19,-51],[-32,-53],[24,-78],[10,-150],[67,-46],[98,9],[53,-44],[-78,-101],[3,-62],[-9,-48],[72,-9],[44,-28],[17,-65],[29,-38],[73,-34],[-21,-33],[-24,-84],[9,-30],[78,-2],[9,-60],[-6,-74],[17,-75],[-1,-80],[45,-65],[2,-54],[-22,-46],[-20,-102],[42,-73],[13,-43],[46,-36],[13,-119],[27,-80],[23,-38],[50,-44],[61,-15],[76,28],[62,49],[15,67],[33,4],[45,-34],[95,42],[21,51],[23,-8],[46,-56],[-3,-61],[21,-30],[5,-43],[38,-44],[52,2],[27,-29],[58,-6],[35,-38],[2,-33],[48,-35],[92,-33],[45,3],[-2,-30],[38,-40],[45,3],[-65,-93],[-7,-44],[15,-45],[29,-27],[-13,-55],[-18,-9],[12,-90],[31,-33],[-4,-29],[34,-68],[4,-51],[-11,-44],[49,-54],[21,-42],[-19,-85],[19,-45],[-32,-37],[-9,-67],[41,-23],[76,-117],[55,-34],[76,-96],[41,2],[67,-29],[-39,-67],[46,-75],[11,-49],[40,-70],[27,-22],[-2,-75],[53,-72],[-30,-45],[-3,-137],[-50,-95],[-12,-43],[13,-65],[51,-53],[54,-19],[20,-68],[40,-20],[43,-2],[-13,-73],[-18,-39],[-11,-100],[38,-52],[51,-31],[23,-30],[137,-75],[60,6],[39,-40],[66,-41],[48,13],[46,44],[7,-64],[50,-58],[21,7],[168,-8],[18,10],[67,-76],[28,-71],[-1,-52],[61,-65],[66,-4],[-23,87],[63,-26],[9,-55],[59,-51],[43,-2],[38,21],[38,-36],[81,-17],[35,-43],[-27,-30],[41,-30],[83,-38],[-7,55],[81,27],[1,-34],[28,-60],[33,15],[19,-30],[68,-30],[37,-37],[1,-45],[48,-31],[-36,-34],[-27,21],[-68,-4],[-46,-34],[44,-48],[12,-52],[53,-25],[60,-69],[39,2],[37,-30],[13,-37],[68,-10],[53,-57],[-23,-56],[20,-56],[44,-29],[32,-64],[9,-43],[49,-54],[32,-83],[-28,-43],[28,-46],[3,-53],[25,-38],[10,-50],[48,-91],[-11,-25],[40,-17],[34,-43],[-7,-65],[90,62],[33,-49],[55,-40],[38,-12],[-44,93],[-21,63],[44,83],[41,13],[66,-77],[16,-51],[25,-27],[55,-14],[141,-72],[21,33],[-7,33],[22,64],[45,-12],[80,-86],[-23,-23],[20,-55],[48,-53],[-35,-165],[4,-44],[-10,-73],[45,-72],[-30,-20],[18,-63],[40,-39],[-12,-27],[19,-32],[34,18],[59,-23],[65,-58],[40,-79],[60,-12],[83,-77],[116,-66],[68,-3],[64,25],[20,-73],[80,-42],[47,-122],[36,-64],[60,-64],[103,-64],[64,-15],[57,-61],[10,-92],[57,-75],[26,-13],[4,-36],[26,-25],[90,-25],[65,-3],[17,-115],[18,-13],[-45,-53],[-3,-64],[32,-39],[27,-7],[25,-37],[9,-48],[36,23],[21,-42],[52,-9],[-39,-69],[-42,-134],[8,-52],[31,-16],[-15,-40],[-3,-116],[27,-23],[-4,-97],[5,-50],[36,-74],[-82,-39],[-29,-39],[50,-42],[-32,-41],[57,-26],[37,-69],[28,-5],[37,-64],[6,-47],[27,-42],[58,-53],[-9,-30],[12,-131],[37,-46]],[[26704,9470],[-81,-54],[-125,-14],[-50,-55],[-178,15],[-63,-20],[-63,22],[-76,3],[-31,34],[-89,-70],[-43,-6],[-48,-31],[-36,0],[-129,-61],[26,-63],[39,-39],[-27,-105],[-60,-30],[-54,3],[-12,-28],[-47,11],[-22,36],[-115,-41],[-47,-80],[-40,-42],[-47,-6],[-23,40],[-19,109],[-69,39],[-69,12],[-21,63],[-166,61],[-113,-15],[-113,8],[-100,68],[-82,-10],[-101,-30],[-171,-4],[-36,-12],[-55,12],[-29,21],[-61,-7],[-45,-59],[-93,-36],[-77,-55],[-42,-12],[-20,-53],[-61,-39],[-450,0],[-639,0],[-320,0],[-639,0],[-320,0],[-639,0],[-320,0],[-639,0],[-639,0],[-639,0]],[[26692,9919],[40,0],[-26,-55],[-35,-132],[-42,11],[12,45],[-8,83],[22,35],[37,13]],[[26642,9965],[-23,56],[-11,111],[60,30],[10,-26],[-27,-74],[-9,-97]],[[26614,11402],[3,-14],[-70,-149],[-70,-127],[-51,-124],[12,-34],[-31,-46],[-36,42],[-34,108],[25,16],[10,56],[44,64],[-4,56],[-16,33],[72,42],[52,53],[9,70],[-51,62],[22,39],[56,34],[0,-101],[14,-44],[44,-36]],[[25233,12211],[18,-51],[-55,-18],[-36,52],[-118,126],[25,21],[114,-37],[52,-93]],[[24750,13061],[13,-19],[-40,-27],[-19,35],[46,11]],[[24342,13204],[8,-73],[-39,11],[31,62]],[[23784,14259],[-19,17],[-45,-21],[-25,27],[24,69],[65,-92]],[[21975,15440],[23,-16],[-41,-51],[-45,17],[-16,55],[-69,67],[19,12],[62,-19],[1,29],[55,-4],[-16,-31],[27,-59]],[[17530,16262],[4,-37],[-81,-5],[2,27],[39,43],[36,-28]],[[17643,16626],[4,-18],[-86,-49],[-38,43],[-56,-51],[-15,-60],[-93,-37],[-109,17],[23,59],[33,46],[43,34],[132,22],[76,22],[37,-27],[49,-1]],[[19302,20158],[-2,-31],[-66,-24],[-23,63],[62,34],[29,-42]],[[26704,9470],[37,-16],[19,-57],[-18,-118],[8,-78],[36,-44],[-19,-61],[3,-65],[-56,-47],[-44,-56],[-21,-77],[-54,-98],[19,-46],[-4,-45],[-23,-58],[-4,-81],[-17,-23],[-1,-56],[-23,-71],[-40,-56],[3,-57],[-44,-79],[6,-17],[-63,-115],[-41,-160],[11,-62],[55,-55],[-27,-40],[8,-52],[-52,-54],[-13,-46],[11,-49],[-40,-61],[12,-38],[-59,-53],[2,-46],[-39,-36],[8,-18],[-37,-37],[-34,-56],[-55,-37],[-41,-60],[-24,-72],[36,-27],[-26,-46],[12,-33],[-15,-57],[-78,-37],[-110,-72],[-43,-48],[13,-45],[-53,-22],[-33,6],[-82,-19],[-66,-30],[-63,-65],[-3,-27],[-42,-28],[-29,-80],[-41,-45],[-31,3],[-41,-27],[33,-34],[-39,-46],[-14,-56],[-53,-13],[-2,-42],[-20,-46],[-11,-122],[-29,-68],[-31,27],[-27,-36],[5,-56],[-92,-56],[-68,-79],[-15,-74],[11,-21],[-78,-38],[54,-27],[-32,-116],[-53,-46],[22,-54],[-7,-25],[52,-21],[-32,-55],[-26,63],[-47,-11],[5,-58]],[[24860,5208],[-44,-15],[-15,-26]],[[24801,5167],[-39,-16],[-46,-68],[5,-29],[-54,-58],[0,-43],[-51,-62],[-17,-37],[-58,-31],[9,-57],[-52,-31],[7,-38],[-13,-97],[-14,-23],[13,-102],[-42,-41],[-17,-70],[8,-40],[-50,-84],[-6,-40],[-33,-37],[-17,-60],[26,-77],[-44,-26],[80,-33],[14,-43],[-45,-39],[14,-32],[-10,-48],[10,-58]],[[24379,3747],[-424,159],[-286,107],[-445,167],[-62,11],[60,81],[-34,46],[-27,79],[-35,23],[7,34],[-31,71],[9,40],[-35,36],[3,33],[-82,37],[-104,36],[-103,-34],[-48,30],[-58,-12],[-59,-52],[-60,-6],[-60,10],[-29,-36],[26,-57],[-52,14],[3,41],[-75,-5],[-55,11],[-60,31],[-44,3],[-43,29],[-72,11],[-54,-5],[-31,-39],[-78,8],[-33,-13],[-102,24],[-46,1],[-21,23],[-86,-3],[-56,11],[-113,74],[-80,2],[-77,-22],[-76,15],[-138,-10],[-24,-16],[-25,-68],[34,-46],[-63,3],[-52,-34],[-46,-2],[-39,31],[-52,11],[-72,65],[-46,28],[-31,61],[-34,37],[-37,7],[-58,39],[-53,56],[-67,19],[-145,84],[-120,35],[-9,68],[-115,43],[-28,44],[-21,88],[19,96],[-51,9],[-10,23],[-83,34],[-60,4],[-77,21],[-35,-13],[-22,39],[-45,19],[-35,-12],[-25,-81],[-29,-31],[-57,8],[-56,80],[-9,31],[-48,36],[-9,54],[23,54],[-51,13],[-46,38],[-16,50],[-46,18],[-46,-5],[-46,35],[-90,-11],[-92,17],[-54,-15],[-65,-53],[-37,26],[-78,23],[-41,-6],[-58,42],[-129,8],[-30,27]],[[23970,5062],[35,18],[-96,37],[-45,56],[-57,20],[-182,-103],[-37,-110],[2,-88],[13,-43],[36,-26],[66,-84],[69,-17],[35,54],[-13,133],[26,17],[17,44],[-6,43],[29,36],[60,19],[48,-6]],[[24860,5208],[42,-2],[-5,-34],[-96,-5]],[[24379,3747],[-50,-23],[-72,-3],[-79,-90],[-89,-28],[-35,-24],[-118,-8],[-234,5],[-103,-5],[-41,-15],[-79,7],[-196,-7],[-116,-21],[-141,-37],[-104,-41],[-111,-59],[-127,-85],[-206,-154],[-65,-61],[-70,-44],[-199,-36],[-47,1],[-61,-24],[-40,28],[-62,-4],[-49,-33],[52,-38],[17,-57],[76,32],[30,42],[23,-82],[-19,-16],[-13,-85],[-26,-34],[-45,24],[9,31],[-50,36],[-8,34],[-46,44],[-59,30],[-49,-8],[-9,-39],[-58,0],[-13,41],[-57,109],[-50,7],[-62,-23],[-45,9],[-38,51],[-43,17],[-11,66],[83,35],[-53,86],[-31,11],[-87,-3],[-62,-64],[17,-47],[-61,8],[-73,-57],[-91,7],[-55,63],[59,4],[59,19],[6,22],[84,89],[-6,66],[-55,34],[-29,59],[-103,1],[-14,-26],[-87,-47],[-75,-18],[-23,-23],[-85,-13],[-21,-25],[106,-19],[86,32],[47,-24],[-48,-74],[-165,-9],[-101,-62],[-129,-51],[-73,-61],[-64,-65],[-92,-22],[-28,-39],[-82,-41],[-57,38],[-76,25],[-62,-5],[-119,78],[-74,10],[-90,25],[-103,65],[-91,40],[-78,24],[-56,0],[-58,-23],[-88,24],[-94,51],[-122,13],[-59,-14],[-47,-66],[-38,-26],[-23,29],[-49,7],[-39,52],[-106,72],[-52,28],[-109,41]],[[21328,3136],[-90,-15],[-7,41],[65,10],[32,-36]],[[21398,3254],[-18,-38],[-40,-30],[-46,16],[-9,26],[36,30],[77,-4]],[[23080,250],[-86,54],[-49,-62],[-61,49],[31,35],[-65,20],[-18,31],[63,11],[45,-27],[67,9],[-35,43],[4,38],[-99,4],[-68,45],[-54,-20],[36,-75],[-49,-1],[-5,43],[-103,38],[26,-48],[-17,-72],[-50,-44],[0,-85],[-32,-20],[-77,33],[-78,62],[-5,-42],[63,-33],[25,-28],[-108,-120],[-6,-71],[-47,-17],[-48,19],[-47,-13],[-67,43],[-24,50],[-39,-34],[-137,2],[-27,23],[-75,-8],[-83,-29],[5,43],[-30,64],[66,15],[37,-29],[57,50],[-134,-4],[-41,60],[-59,-19],[-76,50],[-18,47],[-97,83],[-48,3],[-77,115],[-19,12],[-7,61],[-59,34],[22,23],[-33,33],[-2,46],[-27,76],[0,35],[70,-24],[14,-22],[124,-64],[24,47],[-61,14],[-64,55],[-28,58],[-30,-24],[-17,86],[-30,46],[-96,71],[-45,63],[-43,23],[-39,101],[-48,60],[-18,68],[-56,68],[-4,87],[-46,52],[8,41],[52,26],[8,47],[-13,64],[194,-24],[89,-47],[9,18],[96,-8],[42,-24],[126,-25],[57,-23],[60,-5],[52,-53],[82,-15],[107,-44],[89,-25],[138,-7],[211,62],[42,-29],[20,44],[118,39],[101,-18],[76,40],[37,-1],[67,-40],[50,34],[50,64],[48,13],[99,-41],[63,25],[45,71],[72,-25],[33,-35],[43,-4],[51,-50],[29,-49],[-41,-91],[41,-104],[-34,-79],[1,-52],[20,-57],[-16,-37],[13,-37],[-30,-31],[43,-70],[-18,-83],[43,-36],[-2,-45],[-26,-58],[-38,17],[33,71],[-58,36],[11,52],[-63,-5],[5,-49],[-41,-13],[-12,-59],[-60,-75],[15,-29],[0,-90],[-45,-47],[10,-79],[-41,-25],[-1,-36],[76,-54],[4,-38],[-30,-24],[8,-118],[14,-17]],[[22645,183],[19,-29],[-33,-69],[-51,10],[-58,-10],[12,81],[95,61],[16,-44]],[[22688,311],[-9,-40],[-61,19],[42,55],[28,-34]],[[23175,633],[5,-38],[-30,-33],[-53,65],[37,21],[41,-15]],[[21116,1817],[-56,-34],[-38,36],[49,15],[45,-17]],[[23156,1905],[91,21],[-38,-66],[-48,22],[-5,23]],[[23364,1997],[36,-34],[-50,-37],[-74,33],[-141,-12],[-52,17],[7,30],[40,16],[90,8],[89,18],[55,-39]],[[23091,2133],[-48,64],[-40,92],[-36,-11],[-45,21],[63,31],[6,41],[60,30],[124,-114],[16,-23],[87,-16],[-4,-61],[27,-69],[-17,-38],[-62,20],[-14,-25],[-78,-6],[-39,64]],[[20519,2290],[26,-20],[-21,-64],[-41,-27],[-84,-32],[-24,13],[0,85],[-32,20],[15,56],[1,87],[56,29],[-9,40],[34,10],[65,-33],[19,-32],[9,-79],[-14,-53]]],"transform":{"scale":[0.0015198679026357034,0.0016357421875247522],"translate":[112.91944420700008,-43.63958098799992]},"objects":{"ne_10m_admin_1_states_provinces":{"type":"GeometryCollection","geometries":[{"arcs":[[[0,1,2]],[[3]],[[4]],[[5]],[[6]]],"type":"MultiPolygon","properties":{"featurecla":"Admin-1 states provinces","scalerank":2,"adm1_code":"AUS-2651","diss_me":2651,"iso_3166_2":"AU-WA","wikipedia":"","iso_a2":"AU","adm0_sr":6,"name":"Western Australia","name_alt":"","name_local":"","type":"State","type_en":"State","code_local":"","code_hasc":"AU.WA","note":"","hasc_maybe":"","region":"","region_cod":"","provnum_ne":5,"gadm_level":1,"check_me":20,"datarank":3,"abbrev":"W.A.","postal":"WA","area_sqkm":0,"sameascity":-99,"labelrank":2,"name_len":17,"mapcolor9":2,"mapcolor13":7,"fips":"AS08","fips_alt":"","woe_id":2344706,"woe_label":"Western Australia, AU, Australia","woe_name":"Western Australia","latitude":-25.8483,"longitude":121.646,"sov_a3":"AU1","adm0_a3":"AUS","adm0_label":2,"admin":"Australia","geonunit":"Australia","gu_a3":"AUS","gn_id":2058645,"gn_name":"State of Western Australia","gns_id":-1608952,"gns_name":"Western Australia","gn_level":1,"gn_region":"","gn_a1_code":"AU.08","region_sub":"","sub_code":"","gns_level":1,"gns_lang":"zho","gns_adm1":"AS08","gns_region":"","min_label":3.5,"max_label":7.5,"min_zoom":2,"wikidataid":"Q3206","name_ar":"أستراليا الغربية","name_bn":"পশ্চিম অস্ট্রেলিয়া","name_de":"Western Australia","name_en":"Western Australia","name_es":"Australia Occidental","name_fr":"Australie-Occidentale","name_el":"Δυτική Αυστραλία","name_hi":"पश्चिमी ऑस्ट्रेलिया","name_hu":"Nyugat-Ausztrália","name_id":"Australia Barat","name_it":"Australia Occidentale","name_ja":"西オーストラリア州","name_ko":"웨스턴오스트레일리아","name_nl":"West-Australië","name_pl":"Australia Zachodnia","name_pt":"Austrália Ocidental","name_ru":"Западная Австралия","name_sv":"Western Australia","name_tr":"Batı Avustralya","name_vi":"Tây Úc","name_zh":"西澳大利亚州","ne_id":1159315805,"name_he":"אוסטרליה המערבית","name_uk":"Західна Австралія","name_ur":"مغربی آسٹریلیا","name_fa":"استرالیای غربی","name_zht":"西澳州","FCLASS_ISO":"","FCLASS_US":"","FCLASS_FR":"","FCLASS_RU":"","FCLASS_ES":"","FCLASS_CN":"","FCLASS_TW":"","FCLASS_IN":"","FCLASS_NP":"","FCLASS_PK":"","FCLASS_DE":"","FCLASS_GB":"","FCLASS_BR":"","FCLASS_IL":"","FCLASS_PS":"","FCLASS_SA":"","FCLASS_EG":"","FCLASS_MA":"","FCLASS_PT":"","FCLASS_AR":"","FCLASS_JP":"","FCLASS_KO":"","FCLASS_VN":"","FCLASS_TR":"","FCLASS_ID":"","FCLASS_PL":"","FCLASS_GR":"","FCLASS_IT":"","FCLASS_NL":"","FCLASS_SE":"","FCLASS_BD":"","FCLASS_UA":"","FCLASS_TLC":""}},{"arcs":[[[7,8,9,-2]],[[10]],[[11]],[[12]],[[13]],[[14]],[[15]],[[16]],[[17]],[[18]],[[19]],[[20]],[[21]]],"type":"MultiPolygon","properties":{"featurecla":"Admin-1 states provinces","scalerank":2,"adm1_code":"AUS-2650","diss_me":2650,"iso_3166_2":"AU-NT","wikipedia":"","iso_a2":"AU","adm0_sr":6,"name":"Northern Territory","name_alt":"","name_local":"","type":"Territory","type_en":"Territory","code_local":"","code_hasc":"AU.NT","note":"","hasc_maybe":"","region":"","region_cod":"","provnum_ne":7,"gadm_level":1,"check_me":20,"datarank":3,"abbrev":"N.T.","postal":"NT","area_sqkm":0,"sameascity":-99,"labelrank":2,"name_len":18,"mapcolor9":2,"mapcolor13":7,"fips":"AS03","fips_alt":"","woe_id":2344701,"woe_label":"Northern Territory, AU, Australia","woe_name":"Northern Territory","latitude":-20.1026,"longitude":133.78,"sov_a3":"AU1","adm0_a3":"AUS","adm0_label":2,"admin":"Australia","geonunit":"Australia","gu_a3":"AUS","gn_id":2064513,"gn_name":"Northern Territory","gns_id":-1592100,"gns_name":"Northern Territory","gn_level":1,"gn_region":"","gn_a1_code":"AU.03","region_sub":"","sub_code":"","gns_level":1,"gns_lang":"zho","gns_adm1":"AS03","gns_region":"","min_label":3.5,"max_label":7.5,"min_zoom":2,"wikidataid":"Q3235","name_ar":"إقليم شمالي","name_bn":"উত্তর অঞ্চল","name_de":"Northern Territory","name_en":"Northern Territory","name_es":"Territorio del Norte","name_fr":"Territoire du Nord","name_el":"Βόρεια Επικράτεια","name_hi":"नॉर्थर्न टेरिटरी","name_hu":"Északi terület","name_id":"Wilayah Utara","name_it":"Territorio del Nord","name_ja":"ノーザンテリトリー","name_ko":"노던 준","name_nl":"Noordelijk Territorium","name_pl":"Terytorium Północne","name_pt":"Território do Norte","name_ru":"Северная территория","name_sv":"Northern Territory","name_tr":"Kuzey Toprakları","name_vi":"Lãnh thổ Bắc Úc","name_zh":"北领地","ne_id":1159315809,"name_he":"הטריטוריה הצפונית","name_uk":"Північна територія","name_ur":"شمالی علاقہ","name_fa":"قلمرو شمالی","name_zht":"北領地","FCLASS_ISO":"","FCLASS_US":"","FCLASS_FR":"","FCLASS_RU":"","FCLASS_ES":"","FCLASS_CN":"","FCLASS_TW":"","FCLASS_IN":"","FCLASS_NP":"","FCLASS_PK":"","FCLASS_DE":"","FCLASS_GB":"","FCLASS_BR":"","FCLASS_IL":"","FCLASS_PS":"","FCLASS_SA":"","FCLASS_EG":"","FCLASS_MA":"","FCLASS_PT":"","FCLASS_AR":"","FCLASS_JP":"","FCLASS_KO":"","FCLASS_VN":"","FCLASS_TR":"","FCLASS_ID":"","FCLASS_PL":"","FCLASS_GR":"","FCLASS_IT":"","FCLASS_NL":"","FCLASS_SE":"","FCLASS_BD":"","FCLASS_UA":"","FCLASS_TLC":""}},{"arcs":[[[-3,-10,22,23,24,25]],[[26]]],"type":"MultiPolygon","properties":{"featurecla":"Admin-1 states provinces","scalerank":2,"adm1_code":"AUS-2655","diss_me":2655,"iso_3166_2":"AU-SA","wikipedia":"","iso_a2":"AU","adm0_sr":3,"name":"South Australia","name_alt":"","name_local":"","type":"State","type_en":"State","code_local":"","code_hasc":"AU.SA","note":"","hasc_maybe":"","region":"","region_cod":"","provnum_ne":6,"gadm_level":1,"check_me":20,"datarank":3,"abbrev":"S.A.","postal":"SA","area_sqkm":0,"sameascity":-99,"labelrank":2,"name_len":15,"mapcolor9":2,"mapcolor13":7,"fips":"AS05","fips_alt":"","woe_id":2344703,"woe_label":"South Australia, AU, Australia","woe_name":"South Australia","latitude":-29.6504,"longitude":135.783,"sov_a3":"AU1","adm0_a3":"AUS","adm0_label":2,"admin":"Australia","geonunit":"Australia","gu_a3":"AUS","gn_id":2061327,"gn_name":"State of South Australia","gns_id":-1601186,"gns_name":"South Australia","gn_level":1,"gn_region":"","gn_a1_code":"AU.05","region_sub":"","sub_code":"","gns_level":1,"gns_lang":"zho","gns_adm1":"AS05","gns_region":"","min_label":3.5,"max_label":7.5,"min_zoom":2,"wikidataid":"Q35715","name_ar":"جنوب أستراليا","name_bn":"দক্ষিণ অস্ট্রেলিয়া","name_de":"South Australia","name_en":"South Australia","name_es":"Australia Meridional","name_fr":"Australie-Méridionale","name_el":"Νότια Αυστραλία","name_hi":"दक्षिण ऑस्ट्रेलिया","name_hu":"Dél-Ausztrália","name_id":"Australia Selatan","name_it":"Australia Meridionale","name_ja":"南オーストラリア州","name_ko":"사우스오스트레일리아","name_nl":"Zuid-Australië","name_pl":"Australia Południowa","name_pt":"Austrália Meridional","name_ru":"Южная Австралия","name_sv":"South Australia","name_tr":"Güney Avustralya","name_vi":"Nam Úc","name_zh":"南澳大利亚州","ne_id":1159313267,"name_he":"אוסטרליה הדרומית","name_uk":"Південна Австралія","name_ur":"جنوبی آسٹریلیا","name_fa":"استرالیای جنوبی","name_zht":"南澳州","FCLASS_ISO":"","FCLASS_US":"","FCLASS_FR":"","FCLASS_RU":"","FCLASS_ES":"","FCLASS_CN":"","FCLASS_TW":"","FCLASS_IN":"","FCLASS_NP":"","FCLASS_PK":"","FCLASS_DE":"","FCLASS_GB":"","FCLASS_BR":"","FCLASS_IL":"","FCLASS_PS":"","FCLASS_SA":"","FCLASS_EG":"","FCLASS_MA":"","FCLASS_PT":"","FCLASS_AR":"","FCLASS_JP":"","FCLASS_KO":"","FCLASS_VN":"","FCLASS_TR":"","FCLASS_ID":"","FCLASS_PL":"","FCLASS_GR":"","FCLASS_IT":"","FCLASS_NL":"","FCLASS_SE":"","FCLASS_BD":"","FCLASS_UA":"","FCLASS_TLC":""}},{"arcs":[[[27,28,-23,-9]],[[29]],[[30]],[[31]],[[32]],[[33]],[[34]],[[35]],[[36]],[[37]],[[38]],[[39]]],"type":"MultiPolygon","properties":{"featurecla":"Admin-1 states provinces","scalerank":2,"adm1_code":"AUS-2657","diss_me":2657,"iso_3166_2":"AU-QLD","wikipedia":"","iso_a2":"AU","adm0_sr":5,"name":"Queensland","name_alt":"","name_local":"","type":"State","type_en":"State","code_local":"","code_hasc":"AU.QL","note":"","hasc_maybe":"","region":"","region_cod":"","provnum_ne":8,"gadm_level":1,"check_me":20,"datarank":3,"abbrev":"Qld.","postal":"QL","area_sqkm":0,"sameascity":-99,"labelrank":2,"name_len":10,"mapcolor9":2,"mapcolor13":7,"fips":"AS04","fips_alt":"","woe_id":2344702,"woe_label":"Queensland, AU, Australia","woe_name":"Queensland","latitude":-23.1364,"longitude":144.778,"sov_a3":"AU1","adm0_a3":"AUS","adm0_label":2,"admin":"Australia","geonunit":"Australia","gu_a3":"AUS","gn_id":2152274,"gn_name":"State of Queensland","gns_id":-1596531,"gns_name":"Queensland","gn_level":1,"gn_region":"","gn_a1_code":"AU.04","region_sub":"","sub_code":"","gns_level":1,"gns_lang":"zho","gns_adm1":"AS04","gns_region":"","min_label":3.5,"max_label":7.5,"min_zoom":2,"wikidataid":"Q36074","name_ar":"كوينزلاند","name_bn":"কুইন্সল্যান্ড","name_de":"Queensland","name_en":"Queensland","name_es":"Queensland","name_fr":"Queensland","name_el":"Κουίνσλαντ","name_hi":"क्वीन्सलैण्ड","name_hu":"Queensland","name_id":"Queensland","name_it":"Queensland","name_ja":"クイーンズランド州","name_ko":"퀸즐랜드","name_nl":"Queensland","name_pl":"Queensland","name_pt":"Queensland","name_ru":"Квинсленд","name_sv":"Queensland","name_tr":"Queensland","name_vi":"Queensland","name_zh":"昆士兰州","ne_id":1159315807,"name_he":"קווינסלנד","name_uk":"Квінсленд","name_ur":"کوئنزلینڈ","name_fa":"کوئینزلند","name_zht":"昆士蘭州","FCLASS_ISO":"","FCLASS_US":"","FCLASS_FR":"","FCLASS_RU":"","FCLASS_ES":"","FCLASS_CN":"","FCLASS_TW":"","FCLASS_IN":"","FCLASS_NP":"","FCLASS_PK":"","FCLASS_DE":"","FCLASS_GB":"","FCLASS_BR":"","FCLASS_IL":"","FCLASS_PS":"","FCLASS_SA":"","FCLASS_EG":"","FCLASS_MA":"","FCLASS_PT":"","FCLASS_AR":"","FCLASS_JP":"","FCLASS_KO":"","FCLASS_VN":"","FCLASS_TR":"","FCLASS_ID":"","FCLASS_PL":"","FCLASS_GR":"","FCLASS_IT":"","FCLASS_NL":"","FCLASS_SE":"","FCLASS_BD":"","FCLASS_UA":"","FCLASS_TLC":""}},{"arcs":[[40,41,42,43,-24,-29],[44]],"type":"Polygon","properties":{"featurecla":"Admin-1 states provinces","scalerank":2,"adm1_code":"AUS-2654","diss_me":2654,"iso_3166_2":"AU-NSW","wikipedia":"","iso_a2":"AU","adm0_sr":1,"name":"New South Wales","name_alt":"","name_local":"","type":"State","type_en":"State","code_local":"","code_hasc":"AU.NS","note":"","hasc_maybe":"","region":"","region_cod":"","provnum_ne":9,"gadm_level":1,"check_me":20,"datarank":3,"abbrev":"N.S.W.","postal":"NS","area_sqkm":0,"sameascity":-99,"labelrank":2,"name_len":15,"mapcolor9":2,"mapcolor13":7,"fips":"AS02","fips_alt":"","woe_id":2344700,"woe_label":"New South Wales, AU, Australia","woe_name":"New South Wales","latitude":-32.4751,"longitude":146.781,"sov_a3":"AU1","adm0_a3":"AUS","adm0_label":2,"admin":"Australia","geonunit":"Australia","gu_a3":"AUS","gn_id":2155400,"gn_name":"State of New South Wales","gns_id":-1591422,"gns_name":"New South Wales","gn_level":1,"gn_region":"","gn_a1_code":"AU.02","region_sub":"","sub_code":"","gns_level":1,"gns_lang":"zho","gns_adm1":"AS02","gns_region":"","min_label":3.5,"max_label":7.5,"min_zoom":2,"wikidataid":"Q3224","name_ar":"نيوساوث ويلز","name_bn":"নিউ সাউথ ওয়েল্স","name_de":"New South Wales","name_en":"New South Wales","name_es":"Nueva Gales del Sur","name_fr":"Nouvelle-Galles du Sud","name_el":"Νέα Νότια Ουαλία","name_hi":"न्यू साउथ वेल्स","name_hu":"Új-Dél-Wales","name_id":"New South Wales","name_it":"Nuovo Galles del Sud","name_ja":"ニューサウスウェールズ州","name_ko":"뉴사우스웨일스","name_nl":"Nieuw-Zuid-Wales","name_pl":"Nowa Południowa Walia","name_pt":"Nova Gales do Sul","name_ru":"Новый Южный Уэльс","name_sv":"New South Wales","name_tr":"Yeni Güney Galler","name_vi":"New South Wales","name_zh":"新南威尔士州","ne_id":1159313299,"name_he":"ניו סאות' ויילס","name_uk":"Новий Південний Уельс","name_ur":"نیو ساؤتھ ویلز","name_fa":"نیو ساوت ولز","name_zht":"新南威爾斯州","FCLASS_ISO":"","FCLASS_US":"","FCLASS_FR":"","FCLASS_RU":"","FCLASS_ES":"","FCLASS_CN":"","FCLASS_TW":"","FCLASS_IN":"","FCLASS_NP":"","FCLASS_PK":"","FCLASS_DE":"","FCLASS_GB":"","FCLASS_BR":"","FCLASS_IL":"","FCLASS_PS":"","FCLASS_SA":"","FCLASS_EG":"","FCLASS_MA":"","FCLASS_PT":"","FCLASS_AR":"","FCLASS_JP":"","FCLASS_KO":"","FCLASS_VN":"","FCLASS_TR":"","FCLASS_ID":"","FCLASS_PL":"","FCLASS_GR":"","FCLASS_IT":"","FCLASS_NL":"","FCLASS_SE":"","FCLASS_BD":"","FCLASS_UA":"","FCLASS_TLC":""}},{"arcs":[[45,-42]],"type":"Polygon","properties":{"featurecla":"Admin-1 states provinces","scalerank":2,"adm1_code":"AUS-1932","diss_me":1932,"iso_3166_2":"AU-X02~","wikipedia":"","iso_a2":"AU","adm0_sr":1,"name":"Jervis Bay Territory","name_alt":"","name_local":"","type":"Territory","type_en":"Territory","code_local":"","code_hasc":"AU.JB","note":"","hasc_maybe":"","region":"","region_cod":"","provnum_ne":2,"gadm_level":1,"check_me":20,"datarank":3,"abbrev":"J.B.T.","postal":"JB","area_sqkm":0,"sameascity":-99,"labelrank":2,"name_len":20,"mapcolor9":2,"mapcolor13":7,"fips":"","fips_alt":"","woe_id":1102841,"woe_label":"","woe_name":"Jervis Bay","latitude":-35.1532,"longitude":150.692,"sov_a3":"AU1","adm0_a3":"AUS","adm0_label":2,"admin":"Australia","geonunit":"Australia","gu_a3":"AUS","gn_id":-2177478,"gn_name":"Australian Capital Territory","gns_id":0,"gns_name":"","gn_level":-1,"gn_region":"","gn_a1_code":"AU.","region_sub":"","sub_code":"","gns_level":0,"gns_lang":"","gns_adm1":"","gns_region":"","min_label":3.5,"max_label":7.5,"min_zoom":2,"wikidataid":"Q15577","name_ar":"إقليم خليج جرفيس","name_bn":"জার্ভিস বে টেরিটোরি","name_de":"Jervis Bay Territory","name_en":"Jervis Bay Territory","name_es":"Territorio de Jervis Bay","name_fr":"Territoire de la baie de Jervis","name_el":"Επικράτεια Όρμου Τζέρβις","name_hi":"जर्विस बे टेरिटरी","name_hu":"Jervis Bay Territory","name_id":"Wilayah Teluk Jervis","name_it":"Territorio della Baia di Jervis","name_ja":"ジャービス湾特別地域","name_ko":"저비스베이 준","name_nl":"Jervis Bay Territorium","name_pl":"Jervis Bay Territory","name_pt":"Território da Baía Jervis","name_ru":"Территория Джервис-Бей","name_sv":"Jervis Bay Territory","name_tr":"Jervis Bay Toprağı","name_vi":"Lãnh thổ Vịnh Jervis","name_zh":"傑維斯灣地區","ne_id":1159311169,"name_he":"טריטוריית מפרץ ג'רביס","name_uk":"Територія Джервіс-Бей","name_ur":"خلیج جروس علاقہ","name_fa":"قلمروی خلیج جرویس","name_zht":"傑維斯灣地區","FCLASS_ISO":"","FCLASS_US":"","FCLASS_FR":"","FCLASS_RU":"","FCLASS_ES":"","FCLASS_CN":"","FCLASS_TW":"","FCLASS_IN":"","FCLASS_NP":"","FCLASS_PK":"","FCLASS_DE":"","FCLASS_GB":"","FCLASS_BR":"","FCLASS_IL":"","FCLASS_PS":"","FCLASS_SA":"","FCLASS_EG":"","FCLASS_MA":"","FCLASS_PT":"","FCLASS_AR":"","FCLASS_JP":"","FCLASS_KO":"","FCLASS_VN":"","FCLASS_TR":"","FCLASS_ID":"","FCLASS_PL":"","FCLASS_GR":"","FCLASS_IT":"","FCLASS_NL":"","FCLASS_SE":"","FCLASS_BD":"","FCLASS_UA":"","FCLASS_TLC":""}},{"arcs":[[[46,-25,-44]],[[47]],[[48]]],"type":"MultiPolygon","properties":{"featurecla":"Admin-1 states provinces","scalerank":2,"adm1_code":"AUS-2656","diss_me":2656,"iso_3166_2":"AU-VIC","wikipedia":"","iso_a2":"AU","adm0_sr":5,"name":"Victoria","name_alt":"","name_local":"","type":"State","type_en":"State","code_local":"","code_hasc":"AU.VI","note":"","hasc_maybe":"","region":"","region_cod":"","provnum_ne":3,"gadm_level":1,"check_me":20,"datarank":3,"abbrev":"Vic.","postal":"VI","area_sqkm":0,"sameascity":-99,"labelrank":2,"name_len":8,"mapcolor9":2,"mapcolor13":7,"fips":"AS07","fips_alt":"","woe_id":2344705,"woe_label":"Victoria, AU, Australia","woe_name":"Victoria","latitude":-37.0082,"longitude":144.75,"sov_a3":"AU1","adm0_a3":"AUS","adm0_label":2,"admin":"Australia","geonunit":"Australia","gu_a3":"AUS","gn_id":2145234,"gn_name":"State of Victoria","gns_id":-1606920,"gns_name":"Victoria","gn_level":1,"gn_region":"","gn_a1_code":"AU.07","region_sub":"","sub_code":"","gns_level":1,"gns_lang":"zho","gns_adm1":"AS07","gns_region":"","min_label":3.5,"max_label":7.5,"min_zoom":2,"wikidataid":"Q36687","name_ar":"ولاية فيكتوريا","name_bn":"ভিক্টোরিয়া","name_de":"Victoria","name_en":"Victoria","name_es":"Victoria","name_fr":"Victoria","name_el":"Βικτώρια","name_hi":"विक्टोरिया","name_hu":"Victoria","name_id":"Victoria","name_it":"Victoria","name_ja":"ビクトリア州","name_ko":"빅토리아","name_nl":"Victoria","name_pl":"Wiktoria","name_pt":"Vitória","name_ru":"Виктория","name_sv":"Victoria","name_tr":"Victoria","name_vi":"Victoria","name_zh":"维多利亚州","ne_id":1159313263,"name_he":"ויקטוריה","name_uk":"Вікторія","name_ur":"وکٹوریہ","name_fa":"ویکتوریا","name_zht":"維多利亞省","FCLASS_ISO":"","FCLASS_US":"","FCLASS_FR":"","FCLASS_RU":"","FCLASS_ES":"","FCLASS_CN":"","FCLASS_TW":"","FCLASS_IN":"","FCLASS_NP":"","FCLASS_PK":"","FCLASS_DE":"","FCLASS_GB":"","FCLASS_BR":"","FCLASS_IL":"","FCLASS_PS":"","FCLASS_SA":"","FCLASS_EG":"","FCLASS_MA":"","FCLASS_PT":"","FCLASS_AR":"","FCLASS_JP":"","FCLASS_KO":"","FCLASS_VN":"","FCLASS_TR":"","FCLASS_ID":"","FCLASS_PL":"","FCLASS_GR":"","FCLASS_IT":"","FCLASS_NL":"","FCLASS_SE":"","FCLASS_BD":"","FCLASS_UA":"","FCLASS_TLC":""}},{"arcs":[[[49]],[[50]],[[51]],[[52]],[[53]],[[54]],[[55]],[[56]],[[57]]],"type":"MultiPolygon","properties":{"featurecla":"Admin-1 states provinces","scalerank":2,"adm1_code":"AUS-2660","diss_me":2660,"iso_3166_2":"AU-TAS","wikipedia":"","iso_a2":"AU","adm0_sr":5,"name":"Tasmania","name_alt":"","name_local":"","type":"State","type_en":"State","code_local":"","code_hasc":"AU.TS","note":"","hasc_maybe":"","region":"","region_cod":"","provnum_ne":4,"gadm_level":1,"check_me":20,"datarank":3,"abbrev":"Tas.","postal":"TS","area_sqkm":0,"sameascity":-99,"labelrank":2,"name_len":8,"mapcolor9":2,"mapcolor13":7,"fips":"AS06","fips_alt":"","woe_id":2344704,"woe_label":"","woe_name":"","latitude":-42.1383,"longitude":146.603,"sov_a3":"AU1","adm0_a3":"AUS","adm0_label":2,"admin":"Australia","geonunit":"Australia","gu_a3":"AUS","gn_id":2147291,"gn_name":"State of Tasmania","gns_id":-1603760,"gns_name":"Tasmania","gn_level":1,"gn_region":"","gn_a1_code":"AU.06","region_sub":"","sub_code":"","gns_level":1,"gns_lang":"zho","gns_adm1":"AS06","gns_region":"","min_label":3.5,"max_label":7.5,"min_zoom":2,"wikidataid":"Q34366","name_ar":"تاسمانيا","name_bn":"তাসমানিয়া","name_de":"Tasmanien","name_en":"Tasmania","name_es":"Tasmania","name_fr":"Tasmanie","name_el":"Τασμανία","name_hi":"टासमानिया","name_hu":"Tasmania","name_id":"Tasmania","name_it":"Tasmania","name_ja":"タスマニア州","name_ko":"태즈메이니아","name_nl":"Tasmanië","name_pl":"Tasmania","name_pt":"Tasmânia","name_ru":"Тасмания","name_sv":"Tasmanien","name_tr":"Tasmanya","name_vi":"Tasmania","name_zh":"塔斯马尼亚州","ne_id":1159313261,"name_he":"טסמניה","name_uk":"Тасманія","name_ur":"تسمانیا","name_fa":"تاسمانی","name_zht":"塔斯馬尼亞州","FCLASS_ISO":"","FCLASS_US":"","FCLASS_FR":"","FCLASS_RU":"","FCLASS_ES":"","FCLASS_CN":"","FCLASS_TW":"","FCLASS_IN":"","FCLASS_NP":"","FCLASS_PK":"","FCLASS_DE":"","FCLASS_GB":"","FCLASS_BR":"","FCLASS_IL":"","FCLASS_PS":"","FCLASS_SA":"","FCLASS_EG":"","FCLASS_MA":"","FCLASS_PT":"","FCLASS_AR":"","FCLASS_JP":"","FCLASS_KO":"","FCLASS_VN":"","FCLASS_TR":"","FCLASS_ID":"","FCLASS_PL":"","FCLASS_GR":"","FCLASS_IT":"","FCLASS_NL":"","FCLASS_SE":"","FCLASS_BD":"","FCLASS_UA":"","FCLASS_TLC":""}},{"arcs":[[-45]],"type":"Polygon","properties":{"featurecla":"Admin-1 states provinces","scalerank":2,"adm1_code":"AUS-2653","diss_me":2653,"iso_3166_2":"AU-ACT","wikipedia":"","iso_a2":"AU","adm0_sr":1,"name":"Australian Capital Territory","name_alt":"","name_local":"","type":"Territory","type_en":"Territory","code_local":"","code_hasc":"AU.AC","note":"","hasc_maybe":"","region":"","region_cod":"","provnum_ne":1,"gadm_level":1,"check_me":20,"datarank":3,"abbrev":"A.C.T.","postal":"CT","area_sqkm":0,"sameascity":9,"labelrank":9,"name_len":28,"mapcolor9":2,"mapcolor13":7,"fips":"AS01","fips_alt":"","woe_id":1100968,"woe_label":"","woe_name":"Canberra","latitude":-35.4618,"longitude":148.983,"sov_a3":"AU1","adm0_a3":"AUS","adm0_label":2,"admin":"Australia","geonunit":"Australia","gu_a3":"AUS","gn_id":2177478,"gn_name":"Australian Capital Territory","gns_id":-1556567,"gns_name":"Australian Capital Territory","gn_level":1,"gn_region":"","gn_a1_code":"AU.01","region_sub":"","sub_code":"","gns_level":1,"gns_lang":"zho","gns_adm1":"AS01","gns_region":"","min_label":3.5,"max_label":7.5,"min_zoom":2,"wikidataid":"Q3258","name_ar":"مقاطعة العاصمة الأسترالية","name_bn":"অস্ট্রেলীয় রাজধানী অঞ্চল","name_de":"Australian Capital Territory","name_en":"Australian Capital Territory","name_es":"Territorio de la Capital Australiana","name_fr":"Territoire de la capitale australienne","name_el":"Επικράτεια Αυστραλιανής Πρωτεύουσας","name_hi":"ऑस्ट्रेलियाई राजधानी क्षेत्र","name_hu":"Ausztráliai fővárosi terület","name_id":"Wilayah Ibu Kota Australia","name_it":"Territorio della Capitale Australiana","name_ja":"オーストラリア首都特別地域","name_ko":"오스트레일리아 수도 준","name_nl":"Australian Capital Territory","name_pl":"Australijskie Terytorium Stołeczne","name_pt":"Território da Capital Australiana","name_ru":"Австралийская столичная территория","name_sv":"Australian Capital Territory","name_tr":"Avustralya Başkent Bölgesi","name_vi":"Lãnh thổ Thủ đô Úc","name_zh":"澳大利亚首都特区","ne_id":1159313297,"name_he":"טריטוריית הבירה האוסטרלית","name_uk":"Австралійська столична територія","name_ur":"آسٹریلوی دارالحکومت علاقہ","name_fa":"قلمرو پایتختی استرالیا","name_zht":"澳大利亞首都特區","FCLASS_ISO":"","FCLASS_US":"","FCLASS_FR":"","FCLASS_RU":"","FCLASS_ES":"","FCLASS_CN":"","FCLASS_TW":"","FCLASS_IN":"","FCLASS_NP":"","FCLASS_PK":"","FCLASS_DE":"","FCLASS_GB":"","FCLASS_BR":"","FCLASS_IL":"","FCLASS_PS":"","FCLASS_SA":"","FCLASS_EG":"","FCLASS_MA":"","FCLASS_PT":"","FCLASS_AR":"","FCLASS_JP":"","FCLASS_KO":"","FCLASS_VN":"","FCLASS_TR":"","FCLASS_ID":"","FCLASS_PL":"","FCLASS_GR":"","FCLASS_IT":"","FCLASS_NL":"","FCLASS_SE":"","FCLASS_BD":"","FCLASS_UA":"","FCLASS_TLC":""}}]}}}